[{"OBJECT_NAME":"STARLINK-35823","OBJECT_ID":"2025-254N","EPOCH":"2026-03-09T17:07:55.636032","MEAN_MOTION":15.30200579,"ECCENTRICITY":0.0001111,"INCLINATION":53.1602,"RA_OF_ASC_NODE":232.0348,"ARG_OF_PERICENTER":80.6508,"MEAN_ANOMALY":279.4618,"EPHEMERIS_TYPE":0,"CLASSIFICATION_TYPE":"U","NORAD_CAT_ID":66360,"ELEMENT_SET_NO":999,"REV_AT_EPOCH":1898,"BSTAR":0.0011335385,"MEAN_MOTION_DOT":0.00033364,"MEAN_MOTION_DDOT":0},{"OBJECT_NAME":"FENGYUN 1C DEB","OBJECT_ID":"1999-025BZU","EPOCH":"2026-03-09T17:19:51.665664","MEAN_MOTION":15.28412118,"ECCENTRICITY":0.00188802,"INCLINATION":98.9598,"RA_OF_ASC_NODE":354.2029,"ARG_OF_PERICENTER":82.3682,"MEAN_ANOMALY":277.9697,"EPHEMERIS_TYPE":0,"CLASSIFICATION_TYPE":"U","NORAD_CAT_ID":31614,"ELEMENT_SET_NO":999,"REV_AT_EPOCH":97742,"BSTAR":0.011500831,"MEAN_MOTION_DOT":0.0033373,"MEAN_MOTION_DDOT":0}]
